H1 CPF 01  gfz 2021 06 16 00  6671 terrasarx 
H2 0702601  6201 31698    2021 06 16 00 59 42 2021 06 21 00 00 42   120 1 1  0 0 0
H9
10 0 59385  22302.000000  0    6415195.321   -609229.492  -2445548.412
10 0 59385  22422.000000  0    6023247.684   -751969.900  -3266721.336
10 0 59385  22542.000000  0    5524061.270   -873813.027  -4030585.212
10 0 59385  22662.000000  0    4926833.429   -970856.438  -4723813.711
10 0 59385  22782.000000  0    4242511.523  -1039809.524  -5334346.203
10 0 59385  22902.000000  0    3483581.979  -1078077.259  -5851590.580
10 0 59385  23022.000000  0    2663833.877  -1083828.059  -6266597.288
10 0 59385  23142.000000  0    1798103.746  -1056043.010  -6572202.757
10 0 59385  23262.000000  0     902006.348   -994546.815  -6763141.857
10 0 59385  23382.000000  0      -8344.091   -900021.247  -6836129.467
10 0 59385  23502.000000  0    -916618.464   -773999.025  -6789910.404
10 0 59385  23622.000000  0   -1806558.542   -618839.569  -6625278.935
10 0 59385  23742.000000  0   -2662261.877   -437685.896  -6345066.098
10 0 59385  23862.000000  0   -3468459.104   -234404.264  -5954095.257
10 0 59385  23982.000000  0   -4210782.574    -13506.727  -5459109.348
10 0 59385  24102.000000  0   -4876023.697    219942.305  -4868665.236
10 0 59385  24222.000000  0   -5452371.674    460433.363  -4192997.680
10 0 59385  24342.000000  0   -5929632.389    702132.748  -3443853.331
10 0 59385  24462.000000  0   -6299420.243    939014.078  -2634294.612
10 0 59385  24582.000000  0   -6555318.236   1164997.466  -1778476.473
10 0 59385  24702.000000  0   -6693002.253   1374093.152   -891400.322
10 0 59385  24822.000000  0   -6710326.540   1560546.630     11353.020
10 0 59385  24942.000000  0   -6607363.306   1718979.811    913904.121
10 0 59385  25062.000000  0   -6386399.112   1844526.762   1800361.482
10 0 59385  25182.000000  0   -6051887.067   1932959.797   2655110.489
10 0 59385  25302.000000  0   -5610354.853   1980802.040   3463097.500
10 0 59385  25422.000000  0   -5070270.654   1985423.036   4210102.106
10 0 59385  25542.000000  0   -4441871.722   1945115.861   4882990.765
10 0 59385  25662.000000  0   -3736961.233   1859154.121   5469947.683
10 0 59385  25782.000000  0   -2968678.753   1727827.852   5960680.369
10 0 59385  25902.000000  0   -2151247.461   1552457.787   6346597.230
10 0 59385  26022.000000  0   -1299703.680   1335386.624   6620952.101
10 0 59385  26142.000000  0    -429616.397   1079948.340   6778954.850
10 0 59385  26262.000000  0     443197.676    790416.763   6817848.869
10 0 59385  26382.000000  0    1302960.603    471933.634   6736955.984
10 0 59385  26502.000000  0    2134217.073    130417.784   6537687.476
10 0 59385  26622.000000  0    2922111.226   -227543.908   6223521.955
10 0 59385  26742.000000  0    3652653.501   -594822.314   5799949.320
10 0 59385  26862.000000  0    4312972.178   -963886.021   5274379.893
10 0 59385  26982.000000  0    4891544.951  -1326954.083   4656020.926
10 0 59385  27102.000000  0    5378407.312  -1676157.697   3955721.029
10 0 59385  27222.000000  0    5765333.268  -2003707.977   3185783.419
10 0 59385  27342.000000  0    6045983.457  -2302067.116   2359750.459
10 0 59385  27462.000000  0    6216016.465  -2564117.677   1492163.469
10 0 59385  27582.000000  0    6273161.871  -2783325.932    598302.379
10 0 59385  27702.000000  0    6217251.462  -2953895.820   -306091.210
10 0 59385  27822.000000  0    6050208.061  -3070908.761  -1205099.857
10 0 59385  27942.000000  0    5775991.023  -3130445.707  -2082920.339
10 0 59385  28062.000000  0    5400500.595  -3129688.084  -2924148.304
10 0 59385  28182.000000  0    4931445.765  -3066995.779  -3714053.406
10 0 59385  28302.000000  0    4378178.013  -2941960.947  -4438838.534
10 0 59385  28422.000000  0    3751495.828  -2755436.427  -5085879.282
10 0 59385  28542.000000  0    3063424.435  -2509537.452  -5643937.420
10 0 59385  28662.000000  0    2326979.328  -2207618.638  -6103345.663
10 0 59385  28782.000000  0    1555918.109  -1854227.764  -6456165.369
10 0 59385  28902.000000  0     764482.181  -1455034.810  -6696313.941
10 0 59385  29022.000000  0     -32864.350  -1016739.636  -6819658.583
10 0 59385  29142.000000  0    -821694.141   -546960.377  -6824079.112
10 0 59385  29262.000000  0   -1587871.314    -54103.839  -6709500.240
10 0 59385  29382.000000  0   -2317799.204    452781.501  -6477892.114
10 0 59385  29502.000000  0   -2998655.850    964166.930  -6133239.594
10 0 59385  29622.000000  0   -3618615.275   1470217.779  -5681481.723
10 0 59385  29742.000000  0   -4167053.386   1960978.050  -5130420.684
10 0 59385  29862.000000  0   -4634734.212   2426563.688  -4489598.757
10 0 59385  29982.000000  0   -5013971.713   2857360.585  -3770143.129
10 0 59385  30102.000000  0   -5298763.882   3244221.836  -2984582.070
10 0 59385  30222.000000  0   -5484897.735   3578662.369  -2146634.008
10 0 59385  30342.000000  0   -5570020.126   3853045.744  -1270970.694
10 0 59385  30462.000000  0   -5553672.986   4060757.272   -372958.926
10 0 59385  30582.000000  0   -5437290.789   4196359.760    531613.797
10 0 59385  30702.000000  0   -5224159.664   4255727.454   1426825.545
10 0 59385  30822.000000  0   -4919337.254   4236152.715   2296909.742
10 0 59385  30942.000000  0   -4529537.199   4136424.205   3126541.105
10 0 59385  31062.000000  0   -4062981.306   3956875.536   3901113.125
10 0 59385  31182.000000  0   -3529222.828   3699400.806   4607000.424
10 0 59385  31302.000000  0   -2938946.287   3367438.668   5231800.661
10 0 59385  31422.000000  0   -2303747.770   2965924.932   5764551.844
10 0 59385  31542.000000  0   -1635901.895   2501215.591   6195921.381
10 0 59385  31662.000000  0    -948119.848   1980981.595   6518363.995
10 0 59385  31782.000000  0    -253305.773   1414078.373   6726245.652
10 0 59385  31902.000000  0     435684.801    810393.043   6815936.905
10 0 59385  32022.000000  0    1106282.522    180671.217   6785871.851
10 0 59385  32142.000000  0    1746432.259   -463673.473   6636573.802
10 0 59385  32262.000000  0    2344809.076  -1110765.707   6370647.483
10 0 59385  32382.000000  0    2891018.772  -1748486.447   5992736.968
10 0 59385  32502.000000  0    3375781.030  -2364699.977   5509450.215
10 0 59385  32622.000000  0    3791090.544  -2947485.824   4929249.002
10 0 59385  32742.000000  0    4130353.799  -3485371.591   4262306.821
10 0 59385  32862.000000  0    4388498.740  -3967562.608   3520334.877
10 0 59385  32982.000000  0    4562054.955  -4384163.205   2716378.719
10 0 59385  33102.000000  0    4649202.564  -4726384.170   1864587.778
10 0 59385  33222.000000  0    4649787.134  -4986730.672    979962.116
10 0 59385  33342.000000  0    4565300.217  -5159166.852     78081.888
10 0 59385  33462.000000  0    4398826.134  -5239251.781   -825174.629
10 0 59385  33582.000000  0    4154957.882  -5224244.505  -1713919.486
10 0 59385  33702.000000  0    3839681.189  -5113173.865  -2572543.203
10 0 59385  33822.000000  0    3460232.124  -4906872.353  -3385995.133
10 0 59385  33942.000000  0    3024931.431  -4607973.170  -4140050.555
10 0 59385  34062.000000  0    2543000.513  -4220872.492  -4821559.314
10 0 59385  34182.000000  0    2024363.450  -3751656.161  -5418671.043
10 0 59385  34302.000000  0    1479441.403  -3207995.163  -5921031.856
10 0 59385  34422.000000  0     918943.614  -2599014.413  -6319953.569
10 0 59385  34542.000000  0     353657.934  -1935135.265  -6608553.739
10 0 59385  34662.000000  0    -205754.241  -1227894.462  -6781863.578
10 0 59385  34782.000000  0    -748954.190   -489744.100  -6836903.878
10 0 59385  34902.000000  0   -1266111.720    266163.930  -6772730.106
10 0 59385  35022.000000  0   -1748079.071   1026206.327  -6590446.132
10 0 59385  35142.000000  0   -2186548.823   1776527.708  -6293187.243
10 0 59385  35262.000000  0   -2574194.417   2503286.778  -5886072.327
10 0 59385  35382.000000  0   -2904792.674   3192907.615  -5376125.840
10 0 59385  35502.000000  0   -3173325.327   3832332.120  -4772168.277
10 0 59385  35622.000000  0   -3376058.931   4409269.501  -4084674.890
10 0 59385  35742.000000  0   -3510599.299   4912436.795  -3325602.655
10 0 59385  35862.000000  0   -3575918.977   5331784.535  -2508189.800
10 0 59385  35982.000000  0   -3572359.277   5658704.890  -1646730.793
10 0 59385  36102.000000  0   -3501604.652   5886217.230   -756327.304
10 0 59385  36222.000000  0   -3366628.461   6009123.320    147380.264
10 0 59385  36342.000000  0   -3171614.015   6024128.786   1048492.857
10 0 59385  36462.000000  0   -2921849.481   5929928.089   1931142.828
10 0 59385  36582.000000  0   -2623597.974   5727247.393   2779783.997
10 0 59385  36702.000000  0   -2283949.091   5418844.873   3579473.433
10 0 59385  36822.000000  0   -1910656.183   5009470.991   4316139.839
10 0 59385  36942.000000  0   -1511962.934   4505789.443   4976834.257
10 0 59385  37062.000000  0   -1096422.675   3916261.149   5549958.501
10 0 59385  37182.000000  0    -672715.770   3250993.251   6025465.961
10 0 59385  37302.000000  0    -249469.721   2521557.750   6395032.861
10 0 59385  37422.000000  0     164915.004   1740784.534   6652197.457
10 0 59385  37542.000000  0     562430.411    922532.211   6792467.759
10 0 59385  37662.000000  0     935614.619     81440.098   6813394.245
10 0 59385  37782.000000  0    1277690.742   -767332.509   6714610.073
10 0 59385  37902.000000  0    1582689.492  -1608379.201   6497838.039
10 0 59385  38022.000000  0    1845553.637  -2426325.406   6166862.677
10 0 59385  38142.000000  0    2062222.547  -3206110.379   5727468.905
10 0 59385  38262.000000  0    2229695.636  -3933267.126   5187346.112
10 0 59385  38382.000000  0    2346073.057  -4594194.294   4555958.804
10 0 59385  38502.000000  0    2410574.245  -5176416.300   3844386.644
10 0 59385  38622.000000  0    2423533.625  -5668827.210   3065133.076
10 0 59385  38742.000000  0    2386370.879  -6061911.570   2231906.015
99
